NORAD_CAT_ID,OBJECT_NAME,OBJECT_TYPE,EPOCH,MEAN_MOTION,ECCENTRICITY,INCLINATION,RA_OF_ASC_NODE,ARG_OF_PERICENTER,MEAN_ANOMALY,BSTAR,MEAN_MOTION_DOT,MEAN_MOTION_DDOT,TLE_LINE0,TLE_LINE1,TLE_LINE2,SEMIMAJOR_AXIS,PERIOD,APOGEE,PERIGEE,DECAYED
53869.0,STARLINK-4810,PAYLOAD,2024-01-18 18:21:27,15.08846271,0.0001416,53.2166,179.4977,77.7511,282.364,7.1654e-05,8.53e-06,0.0,0 STARLINK-4810,1 53869U 22114BD  24018.76490007  .00000853  00000-0  71654-4 0  9992,2 53869  53.2166 179.4977 0001416  77.7511 282.3640 15.08846271 75368,6917.861,95.437,540.706,538.747,0.0
53869.0,STARLINK-4810,PAYLOAD,2024-01-19 10:15:18,15.08844166,0.0001565,53.2172,176.5255,70.8358,289.2804,0.00010431,1.373e-05,0.0,0 STARLINK-4810,1 53869U 22114BD  24019.42730070  .00001373  00000-0  10431-3 0  9996,2 53869  53.2172 176.5255 0001565  70.8358 289.2804 15.08844166 75460,6917.868,95.437,540.815,538.65,0.0
53869.0,STARLINK-4810,PAYLOAD,2024-01-19 16:36:51,15.08846192,0.0001579,53.2171,175.3362,70.7119,289.4044,0.00011435,1.533e-05,0.0,0 STARLINK-4810,1 53869U 22114BD  24019.69225833  .00001533  00000-0  11435-3 0  9994,2 53869  53.2171 175.3362 0001579  70.7119 289.4044 15.08846192 75508,6917.861,95.437,540.819,538.634,0.0
53869.0,STARLINK-4810,PAYLOAD,2024-01-20 14:52:14,15.08876526,0.0001299,53.2159,171.1737,67.5256,292.5873,-0.00057202,-9.389e-05,0.0,0 STARLINK-4810,1 53869U 22114BD  24020.61961723 -.00009389  00000-0 -57202-3 0  9994,2 53869  53.2159 171.1737 0001299  67.5256 292.5873 15.08876526 75643,6917.769,95.435,540.532,538.735,0.0
53869.0,STARLINK-4810,PAYLOAD,2024-01-20 16:27:37,15.08885439,0.0001291,53.2161,170.8764,67.4643,292.6486,-0.00069784,-0.00011391,0.0,0 STARLINK-4810,1 53869U 22114BD  24020.68585393 -.00011391  00000-0 -69784-3 0  9990,2 53869  53.2161 170.8764 0001291  67.4643 292.6486 15.08885439 75119,6917.742,95.435,540.5,538.713,0.0
53869.0,STARLINK-4810,PAYLOAD,2024-01-21 13:07:39,15.08843984,0.0001333,53.217,167.0068,98.9208,261.1935,8.6988e-06,-1.49e-06,0.0,0 STARLINK-4810,1 53869U 22114BD  24021.54698097 -.00000149  00000-0  86988-5 0  9997,2 53869  53.2170 167.0068 0001333  98.9208 261.1935 15.08843984 75240,6917.868,95.437,540.655,538.811,0.0
53869.0,STARLINK-4810,PAYLOAD,2024-01-21 19:29:11,15.08852204,0.0001463,53.2172,165.815,94.7208,265.3951,2.1663e-05,5.7e-07,0.0,0 STARLINK-4810,1 53869U 22114BD  24021.81193476  .00000057  00000-0  21663-4 0  9993,2 53869  53.2172 165.8150 0001463  94.7208 265.3951 15.08852204 75821,6917.843,95.437,540.72,538.696,0.0
53869.0,STARLINK-4810,PAYLOAD,2024-01-22 14:33:49,15.088354,0.0001509,53.2182,162.2439,99.3461,260.7702,8.7683e-05,1.108e-05,0.0,0 STARLINK-4810,1 53869U 22114BD  24022.60682464  .00001108  00000-0  87683-4 0  9993,2 53869  53.2182 162.2439 0001509  99.3461 260.7702 15.08835400 75402,6917.894,95.438,540.803,538.716,0.0
53869.0,STARLINK-4810,PAYLOAD,2024-01-23 14:24:36,15.08847135,0.000141,53.217,157.7846,92.5859,267.5294,-1.9678e-05,-6.01e-06,0.0,0 STARLINK-4810,1 53869U 22114BD  24023.60042295 -.00000601  00000-0 -19678-4 0  9994,2 53869  53.2170 157.7846 0001410  92.5859 267.5294 15.08847135 76092,6917.859,95.437,540.699,538.748,0.0
53869.0,STARLINK-4810,PAYLOAD,2024-01-24 14:15:24,15.08835931,0.0001732,53.2179,153.3351,112.246,247.8716,6.4525e-05,7.39e-06,0.0,0 STARLINK-4810,1 53869U 22114BD  24024.59403040  .00000739  00000-0  64525-4 0  9993,2 53869  53.2179 153.3351 0001732 112.2460 247.8716 15.08835931 76247,6917.893,95.438,540.956,538.56,0.0
53869.0,STARLINK-4810,PAYLOAD,2024-01-24 15:50:47,15.08836796,0.0001489,53.2173,153.034,81.1099,279.0062,6.3215e-05,7.18e-06,0.0,0 STARLINK-4810,1 53869U 22114BD  24024.66027128  .00000718  00000-0  63215-4 0  9992,2 53869  53.2173 153.0340 0001489  81.1099 279.0062 15.08836796 75719,6917.89,95.438,540.785,538.725,0.0
53869.0,STARLINK-4810,PAYLOAD,2024-01-25 10:55:25,15.08823899,0.0001684,53.2172,149.463,66.853,293.2639,0.00019538,2.821e-05,0.0,0 STARLINK-4810,1 53869U 22114BD  24025.45515780  .00002821  00000-0  19538-3 0  9991,2 53869  53.2172 149.4630 0001684  66.8530 293.2639 15.08823899 75837,6917.93,95.439,540.96,538.63,0.0
53869.0,STARLINK-4810,PAYLOAD,2024-01-25 14:06:11,15.08828753,0.0001566,53.2161,148.8711,64.5456,295.5698,0.00019383,2.797e-05,0.0,0 STARLINK-4810,1 53869U 22114BD  24025.58763569  .00002797  00000-0  19383-3 0  9995,2 53869  53.2161 148.8711 0001566  64.5456 295.5698 15.08828753 76395,6917.915,95.438,540.863,538.696,0.0
53869.0,STARLINK-4810,PAYLOAD,2024-01-25 15:41:34,15.08846333,0.0001467,53.2168,148.5713,76.0753,284.0402,3.0464e-05,1.97e-06,0.0,0 STARLINK-4810,1 53869U 22114BD  24025.65386823  .00000197  00000-0  30464-4 0  9993,2 53869  53.2168 148.5713 0001467  76.0753 284.0402 15.08846333 75860,6917.861,95.437,540.741,538.711,0.0
53869.0,STARLINK-4810,PAYLOAD,2024-01-26 13:56:58,15.08823698,0.0001484,53.2168,144.4086,68.5423,291.5727,0.00041838,6.374e-05,0.0,0 STARLINK-4810,1 53869U 22114BD  24026.58123311  .00006374  00000-0  41838-3 0  9996,2 53869  53.2168 144.4086 0001484  68.5423 291.5727 15.08823698 76545,6917.93,95.439,540.822,538.769,0.0
53869.0,STARLINK-4810,PAYLOAD,2024-01-27 12:12:22,15.08843416,0.0001516,53.2166,140.2463,78.8991,281.2171,3.3183e-05,2.4e-06,0.0,0 STARLINK-4810,1 53869U 22114BD  24027.50859247  .00000240  00000-0  33183-4 0  9994,2 53869  53.2166 140.2463 0001516  78.8991 281.2171 15.08843416 76141,6917.87,95.437,540.784,538.686,0.0
53869.0,STARLINK-4810,PAYLOAD,2024-01-27 13:47:45,15.08845291,0.0001472,53.2172,139.9484,81.1883,278.9276,3.7443e-05,3.08e-06,0.0,0 STARLINK-4810,1 53869U 22114BD  24027.57483067  .00000308  00000-0  37443-4 0  9992,2 53869  53.2172 139.9484 0001472  81.1883 278.9276 15.08845291 76696,6917.864,95.437,540.748,538.711,0.0
53869.0,STARLINK-4810,PAYLOAD,2024-01-28 13:38:32,15.088463,0.0001552,53.2186,135.4911,80.3925,279.7243,-9.3812e-05,-1.781e-05,0.0,0 STARLINK-4810,1 53869U 22114BD  24028.56843490 -.00001781  00000-0 -93812-4 0  9992,2 53869  53.2186 135.4911 0001552  80.3925 279.7243 15.08846300 76846,6917.861,95.437,540.8,538.652,0.0
53869.0,STARLINK-4810,PAYLOAD,2024-01-29 15:04:42,15.0884863,0.0001659,53.219,130.7332,96.2763,263.8418,0.00014971,2.096e-05,0.0,0 STARLINK-4810,1 53869U 22114BD  24029.62826393  .00002096  00000-0  14971-3 0  9999,2 53869  53.2190 130.7332 0001659  96.2763 263.8418 15.08848630 76464,6917.854,95.437,540.867,538.571,0.0
53869.0,STARLINK-4810,PAYLOAD,2024-01-30 11:44:43,15.08837307,0.0002045,53.2198,126.863,120.5885,239.5309,6.0602e-06,-1.92e-06,0.0,0 STARLINK-4810,1 53869U 22114BD  24030.48939562 -.00000192  00000-0  60602-5 0  9998,2 53869  53.2198 126.8630 0002045 120.5885 239.5309 15.08837307 76597,6917.889,95.438,541.168,538.339,0.0
53869.0,STARLINK-4810,PAYLOAD,2024-01-30 13:20:07,15.08836765,0.0001522,53.2179,126.5668,97.3877,262.7288,2.3961e-05,9.3e-07,0.0,0 STARLINK-4810,1 53869U 22114BD  24030.55563710  .00000093  00000-0  23961-4 0  9999,2 53869  53.2179 126.5668 0001522  97.3877 262.7288 15.08836765 77148,6917.89,95.438,540.808,538.702,0.0
53869.0,STARLINK-4810,PAYLOAD,2024-01-31 11:35:30,15.08849215,0.000158,53.2181,122.4051,109.7543,250.362,-9.2763e-05,-1.764e-05,0.0,0 STARLINK-4810,1 53869U 22114BD  24031.48299347 -.00001764  00000-0 -92763-4 0  9998,2 53869  53.2181 122.4051 0001580 109.7543 250.3620 15.08849215 77286,6917.852,95.437,540.81,538.624,0.0
53869.0,STARLINK-4810,PAYLOAD,2024-01-31 14:46:16,15.08847813,0.0001849,53.2184,121.8108,118.8172,241.3006,1.2875e-05,-8.3e-07,0.0,0 STARLINK-4810,1 53869U 22114BD  24031.61547041 -.00000083  00000-0  12875-4 0  9998,2 53869  53.2184 121.8108 0001849 118.8172 241.3006 15.08847813 76764,6917.857,95.437,541.001,538.442,0.0
53869.0,STARLINK-4810,PAYLOAD,2024-02-01 11:26:18,15.088323,0.0001616,53.2186,117.9453,91.5405,268.5772,4.0614e-05,3.58e-06,0.0,0 STARLINK-4810,1 53869U 22114BD  24032.47660352  .00000358  00000-0  40614-4 0  9990,2 53869  53.2186 117.9453 0001616  91.5405 268.5772 15.08832300 76893,6917.904,95.438,540.887,538.651,0.0
53869.0,STARLINK-4810,PAYLOAD,2024-02-01 14:37:04,15.08834657,0.0001742,53.2191,117.3481,96.7072,263.4118,5.3518e-05,5.64e-06,0.0,0 STARLINK-4810,1 53869U 22114BD  24032.60908265  .00000564  00000-0  53518-4 0  9999,2 53869  53.2191 117.3481 0001742  96.7072 263.4118 15.08834657 77459,6917.897,95.438,540.967,538.557,0.0
53869.0,STARLINK-4810,PAYLOAD,2024-02-02 11:17:04,15.08845989,0.0001507,53.2174,113.4815,92.5808,267.5356,4.8982e-05,4.92e-06,0.0,0 STARLINK-4810,1 53869U 22114BD  24033.47019584  .00000492  00000-0  48982-4 0  9991,2 53869  53.2174 113.4815 0001507  92.5808 267.5356 15.08845989 77042,6917.862,95.437,540.77,538.685,0.0
53869.0,STARLINK-4810,PAYLOAD,2024-02-02 14:27:50,15.08848663,0.0001591,53.2178,112.883,96.4976,263.6198,0.00011436,1.533e-05,0.0,0 STARLINK-4810,1 53869U 22114BD  24033.60267178  .00001533  00000-0  11436-3 0  9990,2 53869  53.2178 112.8830 0001591  96.4976 263.6198 15.08848663 77603,6917.854,95.437,540.82,538.618,0.0
53869.0,STARLINK-4810,PAYLOAD,2024-02-03 11:07:52,15.0884132,0.0001693,53.2174,109.0234,95.4624,264.6561,7.144e-05,8.49e-06,0.0,0 STARLINK-4810,1 53869U 22114BD  24034.46379872  .00000849  00000-0  71440-4 0  9991,2 53869  53.2174 109.0234 0001693  95.4624 264.6561 15.08841320 77739,6917.876,95.437,540.913,538.57,0.0
53869.0,STARLINK-4810,PAYLOAD,2024-02-03 14:18:38,15.08845052,0.0001567,53.2171,108.4275,93.6079,266.5093,0.00011078,1.476e-05,0.0,0 STARLINK-4810,1 53869U 22114BD  24034.59627532  .00001476  00000-0  11078-3 0  9991,2 53869  53.2171 108.4275 0001567  93.6079 266.5093 15.08845052 77218,6917.865,95.437,540.814,538.646,0.0
53869.0,STARLINK-4810,PAYLOAD,2024-02-04 10:58:39,15.08846357,0.000175,53.2181,104.5629,100.1763,259.9427,-1.8314e-05,-5.8e-06,0.0,0 STARLINK-4810,1 53869U 22114BD  24035.45739756 -.00000580  00000-0 -18314-4 0  9997,2 53869  53.2181 104.5629 0001750 100.1763 259.9427 15.08846357 77347,6917.861,95.437,540.937,538.515,0.0
